{
    "links": {
        "self": "http://www.neowsapp.com/rest/v1/neo/3759675?api_key=iIulBulltgU6a56xZRHN4H3l9WmuAYTsLGpBGhQ2"
    },
    "id": "3759675",
    "neo_reference_id": "3759675",
    "name": "(2016 SJ)",
    "designation": "2016 SJ",
    "nasa_jpl_url": "http://ssd.jpl.nasa.gov/sbdb.cgi?sstr=3759675",
    "absolute_magnitude_h": 29.0,
    "estimated_diameter": {
        "kilometers": {
            "estimated_diameter_min": 0.0042126461,
            "estimated_diameter_max": 0.0094197631
        },
        "meters": {
            "estimated_diameter_min": 4.2126461056,
            "estimated_diameter_max": 9.4197630572
        },
        "miles": {
            "estimated_diameter_min": 0.0026176161,
            "estimated_diameter_max": 0.0058531676
        },
        "feet": {
            "estimated_diameter_min": 13.821017849,
            "estimated_diameter_max": 30.9047354285
        }
    },
    "is_potentially_hazardous_asteroid": false,
    "close_approach_data": [
        {
            "close_approach_date": "1927-07-31",
            "close_approach_date_full": "1927-Jul-31 05:16",
            "epoch_date_close_approach": -1338749040000,
            "relative_velocity": {
                "kilometers_per_second": "11.1698051295",
                "kilometers_per_hour": "40211.2984661359",
                "miles_per_hour": "24985.7370941387"
            },
            "miss_distance": {
                "astronomical": "0.1882832528",
                "lunar": "73.2421853392",
                "kilometers": "28166773.575551536",
                "miles": "17502021.5203257568"
            },
            "orbiting_body": "Earth"
        },
        {
            "close_approach_date": "1967-04-17",
            "close_approach_date_full": "1967-Apr-17 15:32",
            "epoch_date_close_approach": -85480080000,
            "relative_velocity": {
                "kilometers_per_second": "27.5047030928",
                "kilometers_per_hour": "99016.931134229",
                "miles_per_hour": "61525.2703483769"
            },
            "miss_distance": {
                "astronomical": "0.4763162019",
                "lunar": "185.2870025391",
                "kilometers": "71255889.250729953",
                "miles": "44276356.4584732314"
            },
            "orbiting_body": "Earth"
        },
        {
            "close_approach_date": "2016-09-21",
            "close_approach_date_full": "2016-Sep-21 18:28",
            "epoch_date_close_approach": 1474482480000,
            "relative_velocity": {
                "kilometers_per_second": "13.7036100391",
                "kilometers_per_hour": "49332.9961407204",
                "miles_per_hour": "30653.6052964382"
            },
            "miss_distance": {
                "astronomical": "0.0009974603",
                "lunar": "0.3880120567",
                "kilometers": "149217.936289561",
                "miles": "92719.7261395018"
            },
            "orbiting_body": "Earth"
        },
        {
            "close_approach_date": "2016-09-21",
            "close_approach_date_full": "2016-Sep-21 22:27",
            "epoch_date_close_approach": 1474496820000,
            "relative_velocity": {
                "kilometers_per_second": "14.4756839111",
                "kilometers_per_hour": "52112.4620799276",
                "miles_per_hour": "32380.6573407195"
            },
            "miss_distance": {
                "astronomical": "0.0029280311",
                "lunar": "1.1390040979",
                "kilometers": "438027.215853757",
                "miles": "272177.4908935666"
            },
            "orbiting_body": "Moon"
        },
        {
            "close_approach_date": "2078-02-26",
            "close_approach_date_full": "2078-Feb-26 20:16",
            "epoch_date_close_approach": 3413132160000,
            "relative_velocity": {
                "kilometers_per_second": "10.8854342088",
                "kilometers_per_hour": "39187.5631515173",
                "miles_per_hour": "24349.6277815636"
            },
            "miss_distance": {
                "astronomical": "0.0999266245",
                "lunar": "38.8714569305",
                "kilometers": "14948810.181489815",
                "miles": "9288759.921256847"
            },
            "orbiting_body": "Mars"
        }
    ],
    "orbital_data": {
        "orbit_id": "3",
        "orbit_determination_date": "2017-04-06 08:23:44",
        "first_observation_date": "2016-09-22",
        "last_observation_date": "2016-09-24",
        "data_arc_in_days": 2,
        "observations_used": 28,
        "orbit_uncertainty": "7",
        "minimum_orbit_intersection": ".000639099",
        "jupiter_tisserand_invariant": "3.837",
        "epoch_osculation": "2459000.5",
        "eccentricity": ".5471061373047563",
        "semi_major_axis": "1.829302211260837",
        "inclination": "1.617096192204058",
        "ascending_node_longitude": "357.5766212274023",
        "orbital_period": "903.7048559155425",
        "perihelion_distance": ".8284797444948709",
        "perihelion_argument": "301.7924424759685",
        "aphelion_distance": "2.830124678026802",
        "perihelion_time": "2459418.537303453757",
        "mean_anomaly": "193.4705979964136",
        "mean_motion": ".3983601478330936",
        "equinox": "J2000",
        "orbit_class": {
            "orbit_class_type": "APO",
            "orbit_class_description": "Near-Earth asteroid orbits which cross the Earth’s orbit similar to that of 1862 Apollo",
            "orbit_class_range": "a (semi-major axis) > 1.0 AU; q (perihelion) < 1.017 AU"
        }
    },
    "is_sentry_object": false
}